GSAT-16                 
1 40332U 14078A   26170.54746215  .00000079  00000+0  00000+0 0  9996
2 40332   0.0958  89.1623 0007643   0.8157  69.9462  1.00271088 42139
DIRECTV 14              
1 40333U 14078B   26170.65943204 -.00000131  00000+0  00000+0 0  9996
2 40333   0.0096  21.7348 0000313 296.0721  88.2306  1.00270473 42062
YAMAL 401               
1 40345U 14082A   26170.76819226  .00000000  00000+0  00000+0 0  9996
2 40345   0.0109  18.6844 0000288 113.8622 141.9647  1.00273395 41940
ASTRA 2G                
1 40364U 14089A   26170.78778802  .00000144  00000+0  00000+0 0  9999
2 40364   0.0462   5.1078 0004701  62.0984 152.5893  1.00269160 41994
FENGYUN 2G              
1 40367U 14090A   26170.77009894 -.00000310  00000+0  00000+0 0  9997
2 40367   5.6465  72.7874 0003825 158.5034  53.6178  1.00270908 42022
MUOS-3                  
1 40374U 15002A   26170.85877913 -.00000135  00000+0  00000+0 0  9998
2 40374   4.5255  43.5325 0052128 177.9506 340.3208  1.00271340 41616
INMARSAT 5-F2           
1 40384U 15005A   26170.80183425 -.00000291  00000+0  00000+0 0  9998
2 40384   0.0179  15.3201 0000595 285.6188 200.7370  1.00269517 41024
ABS-3A                  
1 40424U 15010A   26170.85322422  .00000000  00000+0  00000+0 0  9993
2 40424   0.0395  55.4143 0001835 350.1580 166.6418  1.00270505 41405
EUTELSAT 115 WEST B     
1 40425U 15010B   26170.48239339 -.00000032  00000+0  00000+0 0  9993
2 40425   0.0120 153.6503 0000565 325.1192 207.7110  1.00275408 41417
EXPRESS-AM7             
1 40505U 15012A   26170.82962531  .00000145  00000+0  00000+0 0  9993
2 40505   0.0166  58.0466 0002994  36.7415 151.8985  1.00272133 41032
BEIDOU-3S IGSO-1S       
1 40549U 15019A   26170.99557403 -.00000176  00000+0  00000+0 0  9999
2 40549  49.1899 295.4270 0038863 191.0750 231.2891  1.00249609 41107
THOR 7                  
1 40613U 15022A   26170.60768530 -.00000014  00000+0  00000+0 0  9999
2 40613   0.0161 302.1367 0002478 144.7928  39.0327  1.00273331 40842
TURKMENALEM52E/MONACOSAT
1 40617U 15023A   26170.76071400  .00000098  00000+0  00000+0 0  9995
2 40617   0.0434  80.0773 0002771   2.6302 151.1329  1.00272214 40876
DIRECTV 15              
1 40663U 15026A   26170.65873870 -.00000108  00000+0  00000+0 0  9991
2 40663   0.0148  55.2937 0000300 316.2829  30.5620  1.00272172 40483
SKY MEXICO-1            
1 40664U 15026B   26170.87735519 -.00000240  00000+0  00000+0 0  9990
2 40664   0.0173  57.8933 0002125  47.1977  40.0495  1.00272276 40488
METEOSAT-11 (MSG-4)     
1 40732U 15034A   26170.75227588  .00000056  00000+0  00000+0 0  9998
2 40732   3.2073  71.0913 0002414 346.2837 131.0177  1.00263852  7248
STAR ONE C4             
1 40733U 15034B   26170.38003584 -.00000271  00000+0  00000+0 0  9996
2 40733   0.0215   1.5931 0002048  52.3564 280.4743  1.00272503 40030
WGS F7 (USA 263)        
1 40746U 15036A   26170.14341398  .00000011  00000+0  00000+0 0  9995
2 40746   0.0021 358.7364 0000256 325.6112 169.6528  1.00270644 39895
INTELSAT 34 (IS-34)     
1 40874U 15039A   26170.80183425 -.00000291  00000+0  00000+0 0  9999
2 40874   0.0089  12.0194 0000500 334.3252 154.8400  1.00270827 39669
EUTELSAT 8 WEST B       
1 40875U 15039B   26170.85322422 -.00000071  00000+0  00000+0 0  9993
2 40875   0.0626 351.6541 0003867  94.3841 121.1998  1.00271562 39689
GSAT-6                  
1 40880U 15041A   26170.76669404 -.00000166  00000+0  00000+0 0  9991
2 40880   1.9256  82.5641 0003258   0.1422 183.8325  1.00271744 39624
INMARSAT 5-F3           
1 40882U 15042A   26170.14436731  .00000044  00000+0  00000+0 0  9995
2 40882   0.0179  16.0850 0000160  24.5770  98.3032  1.00269815 39596
MUOS-4                  
1 40887U 15044A   26170.89171307 -.00000099  00000+0  00000+0 0  9990
2 40887   4.3356  42.2703 0057861   2.3657 259.4691  1.00271502 39587
TJS-1                   
1 40892U 15046A   26170.85239507 -.00000161  00000+0  00000+0 0  9991
2 40892   0.3314  84.8985 0005616   0.8434 284.2426  1.00270815 39593
EXPRESS-AM8             
1 40895U 15048A   26170.67633212 -.00000117  00000+0  00000+0 0  9998
2 40895   0.0172 324.1449 0000384 336.7867 196.4374  1.00271504 39376
BEIDOU-3S IGSO-2S       
1 40938U 15053A   26170.70984358 -.00000143  00000+0  00000+0 0  9995
2 40938  49.2167 258.7515 0065583 192.2245 167.5336  1.00258902 39370
SKY MUSTER 1 (NBN1A)    
1 40940U 15054A   26170.70690672  .00000000  00000+0  00000+0 0  9993
2 40940   0.0225 349.5269 0001716  95.4620 217.6619  1.00269881 39286
ARSAT 2                 
1 40941U 15054B   26170.16400112 -.00000231  00000+0  00000+0 0  9999
2 40941   0.0103  12.6317 0002013  60.1259 172.6653  1.00270450 39329
MORELOS 3               
1 40946U 15056A   26170.87059515 -.00000050  00000+0  00000+0 0  9990
2 40946   3.1890  15.1366 0001072   3.2793  89.9915  1.00270883 39318
APSTAR-9                
1 40982U 15059A   26170.92111015 -.00000271  00000+0  00000+0 0  9998
2 40982   0.0410  57.4750 0002340 127.0574 197.2174  1.00270975 39142
TURKSAT 4B              
1 40984U 15060A   26170.76028067  .00000110  00000+0  00000+0 0  9999
2 40984   0.0010 357.5356 0002252  85.8831 148.2344  1.00268759 39125
ZHONGXING-2C            
1 41021U 15063A   26170.91348345 -.00000329  00000+0  00000+0 0  9999
2 41021   0.2819  89.5734 0007740  99.0836 151.7697  1.00269567 39003
