OBJECT_NAME,OBJECT_ID,EPOCH,MEAN_MOTION,ECCENTRICITY,INCLINATION,RA_OF_ASC_NODE,ARG_OF_PERICENTER,MEAN_ANOMALY,EPHEMERIS_TYPE,CLASSIFICATION_TYPE,NORAD_CAT_ID,ELEMENT_SET_NO,REV_AT_EPOCH,BSTAR,MEAN_MOTION_DOT,MEAN_MOTION_DDOT
GSAT-16,2014-078A,2026-06-19T13:08:20.729760,1.00271088,.00076433,0.0958,89.1623,0.8157,69.9462,0,U,40332,999,4213,0,.79E-6,0
DIRECTV 14,2014-078B,2026-06-19T15:49:34.928256,1.00270473,.00003131,0.0096,21.7348,296.0721,88.2306,0,U,40333,999,4206,0,-.131E-5,0
YAMAL 401,2014-082A,2026-06-19T18:26:11.811264,1.00273395,.00002887,0.0109,18.6844,113.8622,141.9647,0,U,40345,999,4194,0,0,0
ASTRA 2G,2014-089A,2026-06-19T18:54:24.884928,1.00269160,.00047011,0.0462,5.1078,62.0984,152.5893,0,U,40364,999,4199,0,.144E-5,0
FENGYUN 2G,2014-090A,2026-06-19T18:28:56.548416,1.00270908,.00038255,5.6465,72.7874,158.5034,53.6178,0,U,40367,999,4202,0,-.31E-5,0
MUOS-3,2015-002A,2026-06-19T20:36:38.516832,1.00271340,.00521281,4.5255,43.5325,177.9506,340.3208,0,U,40374,999,4161,0,-.135E-5,0
INMARSAT 5-F2,2015-005A,2026-06-19T19:14:38.479200,1.00269517,.00005951,0.0179,15.3201,285.6188,200.7370,0,U,40384,999,4102,0,-.291E-5,0
ABS-3A,2015-010A,2026-06-19T20:28:38.572608,1.00270505,.00018358,0.0395,55.4143,350.1580,166.6418,0,U,40424,999,4140,0,0,0
EUTELSAT 115 WEST B,2015-010B,2026-06-19T11:34:38.788896,1.00275408,.00005657,0.0120,153.6503,325.1192,207.7110,0,U,40425,999,4141,0,-.32E-6,0
EXPRESS-AM7,2015-012A,2026-06-19T19:54:39.626784,1.00272133,.00029942,0.0166,58.0466,36.7415,151.8985,0,U,40505,999,4103,0,.145E-5,0
BEIDOU-3S IGSO-1S,2015-019A,2026-06-19T23:53:37.596192,1.00249609,.00388634,49.1899,295.4270,191.0750,231.2891,0,U,40549,999,4110,0,-.176E-5,0
THOR 7,2015-022A,2026-06-19T14:35:04.009920,1.00273331,.00024783,0.0161,302.1367,144.7928,39.0327,0,U,40613,999,4084,0,-.14E-6,0
TURKMENALEM52E/MONACOSAT,2015-023A,2026-06-19T18:15:25.689600,1.00272214,.00027712,0.0434,80.0773,2.6302,151.1329,0,U,40617,999,4087,0,.98E-6,0
DIRECTV 15,2015-026A,2026-06-19T15:48:35.023680,1.00272172,.00003004,0.0148,55.2937,316.2829,30.5620,0,U,40663,999,4048,0,-.108E-5,0
SKY MEXICO-1,2015-026B,2026-06-19T21:03:23.488416,1.00272276,.00021251,0.0173,57.8933,47.1977,40.0495,0,U,40664,999,4048,0,-.24E-5,0
METEOSAT-11 (MSG-4),2015-034A,2026-06-19T18:03:16.636032,1.00263852,.00024143,3.2073,71.0913,346.2837,131.0177,0,U,40732,999,724,0,.56E-6,0
STAR ONE C4,2015-034B,2026-06-19T09:07:15.096576,1.00272503,.00020485,0.0215,1.5931,52.3564,280.4743,0,U,40733,999,4003,0,-.271E-5,0
WGS F7 (USA 263),2015-036A,2026-06-19T03:26:30.967872,1.00270644,.0000256,0.0021,358.7364,325.6112,169.6528,0,U,40746,999,3989,0,.11E-6,0
INTELSAT 34 (IS-34),2015-039A,2026-06-19T19:14:38.479200,1.00270827,.00005003,0.0089,12.0194,334.3252,154.8400,0,U,40874,999,3966,0,-.291E-5,0
EUTELSAT 8 WEST B,2015-039B,2026-06-19T20:28:38.572608,1.00271562,.00038675,0.0626,351.6541,94.3841,121.1998,0,U,40875,999,3968,0,-.71E-6,0
GSAT-6,2015-041A,2026-06-19T18:24:02.365056,1.00271744,.00032588,1.9256,82.5641,0.1422,183.8325,0,U,40880,999,3962,0,-.166E-5,0
INMARSAT 5-F3,2015-042A,2026-06-19T03:27:53.335584,1.00269815,.00001602,0.0179,16.0850,24.5770,98.3032,0,U,40882,999,3959,0,.44E-6,0
MUOS-4,2015-044A,2026-06-19T21:24:04.009248,1.00271502,.00578611,4.3356,42.2703,2.3657,259.4691,0,U,40887,999,3958,0,-.99E-6,0
TJS-1,2015-046A,2026-06-19T20:27:26.934048,1.00270815,.0005616,0.3314,84.8985,0.8434,284.2426,0,U,40892,999,3959,0,-.161E-5,0
EXPRESS-AM8,2015-048A,2026-06-19T16:13:55.095168,1.00271504,.00003843,0.0172,324.1449,336.7867,196.4374,0,U,40895,999,3937,0,-.117E-5,0
BEIDOU-3S IGSO-2S,2015-053A,2026-06-19T17:02:10.485312,1.00258902,.00655838,49.2167,258.7515,192.2245,167.5336,0,U,40938,999,3937,0,-.143E-5,0
SKY MUSTER 1 (NBN1A),2015-054A,2026-06-19T16:57:56.740608,1.00269881,.00017161,0.0225,349.5269,95.4620,217.6619,0,U,40940,999,3928,0,0,0
ARSAT 2,2015-054B,2026-06-19T03:56:09.696768,1.00270450,.00020135,0.0103,12.6317,60.1259,172.6653,0,U,40941,999,3932,0,-.231E-5,0
MORELOS 3,2015-056A,2026-06-19T20:53:39.420960,1.00270883,.0001072,3.1890,15.1366,3.2793,89.9915,0,U,40946,999,3931,0,-.5E-6,0
APSTAR-9,2015-059A,2026-06-19T22:06:23.916960,1.00270975,.00023409,0.0410,57.4750,127.0574,197.2174,0,U,40982,999,3914,0,-.271E-5,0
TURKSAT 4B,2015-060A,2026-06-19T18:14:48.249888,1.00268759,.00022527,0.0010,357.5356,85.8831,148.2344,0,U,40984,999,3912,0,.11E-5,0
ZHONGXING-2C,2015-063A,2026-06-19T21:55:24.970080,1.00269567,.00077408,0.2819,89.5734,99.0836,151.7697,0,U,41021,999,3900,0,-.329E-5,0
